STARLINK-30760          
1 58187U 23167N   26068.52874204 -.00001663  00000+0 -52348-4 0  9995
2 58187  42.9998 144.0264 0001007 208.5156 151.5640 15.26739238130965
OTTER                   
1 62623U 25009Q   26068.72300813  .00012198  00000+0  45151-3 0  9990
2 62623  97.4065 151.3812 0003573 310.7710  49.3219 15.27809545 63722
